ASTRA 2G                
1 40364U 14089A   26203.26348670  .00000153  00000+0  00000+0 0  9995
2 40364   0.0626  41.0377 0004588  38.1722 343.8214  1.00272547 42316
FENGYUN 2G              
1 40367U 14090A   26203.06375166 -.00000304  00000+0  00000+0 0  9997
2 40367   5.7250  72.3926 0003721 172.1360 177.7509  1.00278644 42344
MUOS-3                  
1 40374U 15002A   26203.04211484 -.00000129  00000+0  00000+0 0  9994
2 40374   4.5860  43.6459 0054063 177.0534  78.7548  1.00273145 41938
INMARSAT 5-F2           
1 40384U 15005A   26203.10444197 -.00000283  00000+0  00000+0 0  9995
2 40384   0.0187  60.5996 0000672  61.3091 160.5497  1.00272007 41340
ABS-3A                  
1 40424U 15010A   26203.07614079 -.00000024  00000+0  00000+0 0  9993
2 40424   0.0125  56.9793 0001460  27.0448 240.2551  1.00270166 41725
EUTELSAT 115 WEST B     
1 40425U 15010B   26203.25183655 -.00000022  00000+0  00000+0 0  9993
2 40425   0.0057 165.3125 0000229 128.5807 341.8624  1.00270354 41731
EXPRESS-AM7             
1 40505U 15012A   26203.26582671  .00000154  00000+0  00000+0 0  9991
2 40505   0.0127 351.7815 0003019 137.0289 306.9055  1.00274944 41351
BEIDOU-3S IGSO-1S       
1 40549U 15019A   26194.62309473 -.00000169  00000+0  00000+0 0  9999
2 40549  49.1434 295.1438 0038658 197.4315 114.4487  1.00301762 41331
THOR 7                  
1 40613U 15022A   26203.07614079 -.00000006  00000+0  00000+0 0  9996
2 40613   0.0076 219.5537 0002785 257.6235 209.4032  1.00270834 41160
TURKMENALEM52E/MONACOSAT
1 40617U 15023A   26203.26808006  .00000106  00000+0  00000+0 0  9997
2 40617   0.0153  76.6474 0002909  46.9936 324.9181  1.00275225 41209
DIRECTV 15              
1 40663U 15026A   26203.24627885 -.00000100  00000+0  00000+0 0  9998
2 40663   0.0209  79.3108 0000694 296.1878 270.2702  1.00275273 40810
SKY MEXICO-1            
1 40664U 15026B   26203.24225326 -.00000231  00000+0  00000+0 0  9998
2 40664   0.0189 303.5914 0002695 190.9663 173.8401  1.00270626 40801
METEOSAT-11 (MSG-4)     
1 40732U 15034A   26203.11718203  .00000062  00000+0  00000+0 0  9991
2 40732   3.2857  70.8821 0001988 355.4832 284.9676  1.00274021  7562
STAR ONE C4             
1 40733U 15034B   26203.24407326 -.00000262  00000+0  00000+0 0  9990
2 40733   0.0431 301.6743 0001690 148.2756 227.9062  1.00272588 40364
WGS F7 (USA 263)        
1 40746U 15036A   26203.16294780  .00000021  00000+0  00000+0 0  9997
2 40746   0.0165  55.4058 0000178  82.8421  35.3265  1.00272165 40229
INTELSAT 34 (IS-34)     
1 40874U 15039A   26203.10435530 -.00000283  00000+0  00000+0 0  9997
2 40874   0.0097 353.0598 0000587  45.3672 243.5051  1.00270872 39987
EUTELSAT 8 WEST B       
1 40875U 15039B   26203.11371535 -.00000063  00000+0  00000+0 0  9999
2 40875   0.0632   3.4624 0003708 112.3740 216.9629  1.00271526 40005
GSAT-6                  
1 40880U 15041A   26203.14350167 -.00000159  00000+0  00000+0 0  9995
2 40880   2.0062  82.1483 0002906  36.3833 315.5466  1.00272175 39941
INMARSAT 5-F3           
1 40882U 15042A   26203.16294780  .00000053  00000+0  00000+0 0  9990
2 40882   0.0177  62.2553 0000516  91.4898  24.4204  1.00272454 39927
MUOS-4                  
1 40887U 15044A   26203.13018209 -.00000093  00000+0  00000+0 0  9999
2 40887   4.3942  42.4300 0056458   3.8706  15.4246  1.00272224 39910
TJS-1                   
1 40892U 15046A   26203.21729851 -.00000153  00000+0  00000+0 0  9995
2 40892   0.4112  84.7586 0005298  22.0678  66.3863  1.00271434 39927
EXPRESS-AM8             
1 40895U 15048A   26203.11258867 -.00000108  00000+0  00000+0 0  9993
2 40895   0.0233 290.7560 0000385  12.7869  22.8537  1.00274401 39697
BEIDOU-3S IGSO-2S       
1 40938U 15053A   26203.13356211 -.00000094  00000+0  00000+0 0  9995
2 40938  49.1665 258.3622 0065933 193.7698 348.6667  1.00252073 39703
SKY MUSTER 1 (NBN1A)    
1 40940U 15054A   26203.28567347 -.00000275  00000+0  00000+0 0  9990
2 40940   0.0104  29.6971 0001773  83.6712  69.7635  1.00273180 39610
ARSAT 2                 
1 40941U 15054B   26203.24181993 -.00000222  00000+0  00000+0 0  9998
2 40941   0.0474 272.0819 0002267 195.2638 198.6982  1.00272152 39651
MORELOS 3               
1 40946U 15056A   26202.66521385 -.00000043  00000+0  00000+0 0  9994
2 40946   3.2157  15.9390 0000671 168.5781 241.2838  1.00271674 39637
APSTAR-9                
1 40982U 15059A   26203.28602014 -.00000263  00000+0  00000+0 0  9999
2 40982   0.0514 280.2424 0003572 261.7359   3.0187  1.00270552 39471
TURKSAT 4B              
1 40984U 15060A   26203.26782006  .00000118  00000+0  00000+0 0  9999
2 40984   0.0287 273.5795 0002265 196.8966 335.9172  1.00271071 39441
ZHONGXING-2C            
1 41021U 15063A   26203.13933537 -.00000321  00000+0  00000+0 0  9995
2 41021   0.3619  88.4778 0008234  99.7932 265.2011  1.00269310 39334
GSAT-15                 
1 41028U 15065A   26203.13239132 -.00000255  00000+0  00000+0 0  9990
2 41028   0.1001 263.3242 0003596 179.1471 358.5771  1.00271571 39141
BADR-7 (ARABSAT-6B)     
1 41029U 15065B   26203.26305337  .00000148  00000+0  00000+0 0  9996
2 41029   0.0418 230.9742 0004814 332.2073 217.4966  1.00271776 39115
