OBJECT_NAME,OBJECT_ID,EPOCH,MEAN_MOTION,ECCENTRICITY,INCLINATION,RA_OF_ASC_NODE,ARG_OF_PERICENTER,MEAN_ANOMALY,EPHEMERIS_TYPE,CLASSIFICATION_TYPE,NORAD_CAT_ID,ELEMENT_SET_NO,REV_AT_EPOCH,BSTAR,MEAN_MOTION_DOT,MEAN_MOTION_DDOT
ASTRA 2G,2014-089A,2026-07-22T06:19:25.250880,1.00272547,.0004588,0.0626,41.0377,38.1722,343.8214,0,U,40364,999,4231,0,.153E-5,0
FENGYUN 2G,2014-090A,2026-07-22T01:31:48.143424,1.00278644,.0003721,5.7250,72.3926,172.1360,177.7509,0,U,40367,999,4234,0,-.304E-5,0
MUOS-3,2015-002A,2026-07-22T01:00:38.722176,1.00273145,.00540631,4.5860,43.6459,177.0534,78.7548,0,U,40374,999,4193,0,-.129E-5,0
INMARSAT 5-F2,2015-005A,2026-07-22T02:30:23.786208,1.00272007,.00006725,0.0187,60.5996,61.3091,160.5497,0,U,40384,999,4134,0,-.283E-5,0
ABS-3A,2015-010A,2026-07-22T01:49:38.564256,1.00270166,.00014608,0.0125,56.9793,27.0448,240.2551,0,U,40424,999,4172,0,-.24E-6,0
EUTELSAT 115 WEST B,2015-010B,2026-07-22T06:02:38.677920,1.00270354,.00002296,0.0057,165.3125,128.5807,341.8624,0,U,40425,999,4173,0,-.22E-6,0
EXPRESS-AM7,2015-012A,2026-07-22T06:22:47.427744,1.00274944,.00030197,0.0127,351.7815,137.0289,306.9055,0,U,40505,999,4135,0,.154E-5,0
BEIDOU-3S IGSO-1S,2015-019A,2026-07-13T14:57:15.384672,1.00301762,.00386582,49.1434,295.1438,197.4315,114.4487,0,U,40549,999,4133,0,-.169E-5,0
THOR 7,2015-022A,2026-07-22T01:49:38.564256,1.00270834,.00027854,0.0076,219.5537,257.6235,209.4032,0,U,40613,999,4116,0,-.6E-7,0
TURKMENALEM52E/MONACOSAT,2015-023A,2026-07-22T06:26:02.117184,1.00275225,.0002909,0.0153,76.6474,46.9936,324.9181,0,U,40617,999,4120,0,.106E-5,0
DIRECTV 15,2015-026A,2026-07-22T05:54:38.492640,1.00275273,.00006949,0.0209,79.3108,296.1878,270.2702,0,U,40663,999,4081,0,-.1E-5,0
SKY MEXICO-1,2015-026B,2026-07-22T05:48:50.681664,1.00270626,.00026951,0.0189,303.5914,190.9663,173.8401,0,U,40664,999,4080,0,-.231E-5,0
METEOSAT-11 (MSG-4),2015-034A,2026-07-22T02:48:44.527392,1.00274021,.00019889,3.2857,70.8821,355.4832,284.9676,0,U,40732,999,756,0,.62E-6,0
STAR ONE C4,2015-034B,2026-07-22T05:51:27.929664,1.00272588,.00016908,0.0431,301.6743,148.2756,227.9062,0,U,40733,999,4036,0,-.262E-5,0
WGS F7 (USA 263),2015-036A,2026-07-22T03:54:38.689920,1.00272165,.00001782,0.0165,55.4058,82.8421,35.3265,0,U,40746,999,4022,0,.21E-6,0
INTELSAT 34 (IS-34),2015-039A,2026-07-22T02:30:16.297920,1.00270872,.00005874,0.0097,353.0598,45.3672,243.5051,0,U,40874,999,3998,0,-.283E-5,0
EUTELSAT 8 WEST B,2015-039B,2026-07-22T02:43:45.006240,1.00271526,.00037081,0.0632,3.4624,112.3740,216.9629,0,U,40875,999,4000,0,-.63E-6,0
GSAT-6,2015-041A,2026-07-22T03:26:38.544288,1.00272175,.00029066,2.0062,82.1483,36.3833,315.5466,0,U,40880,999,3994,0,-.159E-5,0
INMARSAT 5-F3,2015-042A,2026-07-22T03:54:38.689920,1.00272454,.00005169,0.0177,62.2553,91.4898,24.4204,0,U,40882,999,3992,0,.53E-6,0
MUOS-4,2015-044A,2026-07-22T03:07:27.732576,1.00272224,.00564586,4.3942,42.4300,3.8706,15.4246,0,U,40887,999,3991,0,-.93E-6,0
TJS-1,2015-046A,2026-07-22T05:12:54.591264,1.00271434,.00052984,0.4112,84.7586,22.0678,66.3863,0,U,40892,999,3992,0,-.153E-5,0
EXPRESS-AM8,2015-048A,2026-07-22T02:42:07.661088,1.00274401,.00003851,0.0233,290.7560,12.7869,22.8537,0,U,40895,999,3969,0,-.108E-5,0
BEIDOU-3S IGSO-2S,2015-053A,2026-07-22T03:12:19.766304,1.00252073,.00659338,49.1665,258.3622,193.7698,348.6667,0,U,40938,999,3970,0,-.94E-6,0
SKY MUSTER 1 (NBN1A),2015-054A,2026-07-22T06:51:22.187808,1.00273180,.00017736,0.0104,29.6971,83.6712,69.7635,0,U,40940,999,3961,0,-.275E-5,0
ARSAT 2,2015-054B,2026-07-22T05:48:13.241952,1.00272152,.00022676,0.0474,272.0819,195.2638,198.6982,0,U,40941,999,3965,0,-.222E-5,0
MORELOS 3,2015-056A,2026-07-21T15:57:54.476640,1.00271674,.00006715,3.2157,15.9390,168.5781,241.2838,0,U,40946,999,3963,0,-.43E-6,0
APSTAR-9,2015-059A,2026-07-22T06:51:52.140096,1.00270552,.00035725,0.0514,280.2424,261.7359,3.0187,0,U,40982,999,3947,0,-.263E-5,0
TURKSAT 4B,2015-060A,2026-07-22T06:25:39.653184,1.00271071,.00022658,0.0287,273.5795,196.8966,335.9172,0,U,40984,999,3944,0,.118E-5,0
ZHONGXING-2C,2015-063A,2026-07-22T03:20:38.575968,1.00269310,.00082346,0.3619,88.4778,99.7932,265.2011,0,U,41021,999,3933,0,-.321E-5,0
GSAT-15,2015-065A,2026-07-22T03:10:38.610048,1.00271571,.0003596,0.1001,263.3242,179.1471,358.5771,0,U,41028,999,3914,0,-.255E-5,0
BADR-7 (ARABSAT-6B),2015-065B,2026-07-22T06:18:47.811168,1.00271776,.00048143,0.0418,230.9742,332.2073,217.4966,0,U,41029,999,3911,0,.148E-5,0
